EUTELSAT 21B            
1 38992U 12062B   25222.33126178  .00000131  00000+0  00000+0 0  9999
2 38992   0.0686 352.4884 0003181 139.1454 328.2594  1.00269947 46716
EUTELSAT 70B            
1 39020U 12069A   25222.56777521 -.00000042  00000+0  00000+0 0  9990
2 39020   0.0641 354.0235 0003513 147.0464  93.1005  1.00271366 46393
EUTELSAT 117 WEST A     
1 39122U 13012A   25222.51797245 -.00000011  00000+0  00000+0 0  9998
2 39122   0.0093  38.5210 0002961 106.8781 243.4991  1.00271796 45317
EUTELSAT 7B             
1 39163U 13022A   25222.32840176  .00000049  00000+0  00000+0 0  9995
2 39163   0.0682 352.9582 0002349  66.3233  24.9894  1.00272927 44841
EXPRESS-AT1             
1 39612U 14010A   25222.55220752  .00000079  00000+0  00000+0 0  9992
2 39612   0.0133 119.8462 0000020 311.1932 143.0292  1.00273130 41703
EXPRESS-AT2             
1 39613U 14010B   25222.92571355 -.00000280  00000+0  00000+0 0  9997
2 39613   0.0066 159.0780 0000491 315.7597 317.8987  1.00276168 41770
EUTELSAT 3B             
1 39773U 14030A   25222.39864389  .00000021  00000+0  00000+0 0  9991
2 39773   0.0639 351.9055 0004304 151.1257 322.6924  1.00270711 40955
EUTELSAT 115 WEST B     
1 40425U 15010B   25222.51831912 -.00000024  00000+0  00000+0 0  9990
2 40425   0.0150 237.1138 0000087  59.9807  93.8250  1.00272634 38273
